CCSDS_OMM_VERS = 2.0
CREATION_DATE  = 
ORIGINATOR     = 

OBJECT_NAME    = ATLAS CENTAUR R/B
OBJECT_ID      = 1972-065B
CENTER_NAME    = EARTH
REF_FRAME      = TEME
TIME_SYSTEM    = UTC
MEAN_ELEMENT_THEORY = SGP/SGP4

EPOCH          = 2025-11-04T17:54:12.030048
MEAN_MOTION    = 14.77253309
ECCENTRICITY   = .0033357
INCLINATION    = 35.0024
RA_OF_ASC_NODE = 317.7335
ARG_OF_PERICENTER = 38.3673
MEAN_ANOMALY   = 321.9392

EPHEMERIS_TYPE = 0
CLASSIFICATION_TYPE = U
NORAD_CAT_ID   = 6155
ELEMENT_SET_NO = 999
REV_AT_EPOCH   = 82277
BSTAR          = .21221443E-3
MEAN_MOTION_DOT = .1519E-4
MEAN_MOTION_DDOT = 0

CCSDS_OMM_VERS = 2.0
CREATION_DATE  = 
ORIGINATOR     = 

OBJECT_NAME    = SL-8 R/B
OBJECT_ID      = 1975-112B
CENTER_NAME    = EARTH
REF_FRAME      = TEME
TIME_SYSTEM    = UTC
MEAN_ELEMENT_THEORY = SGP/SGP4

EPOCH          = 2025-11-04T07:01:31.408032
MEAN_MOTION    = 14.38106662
ECCENTRICITY   = .00154
INCLINATION    = 74.0600
RA_OF_ASC_NODE = 249.5708
ARG_OF_PERICENTER = 7.2427
MEAN_ANOMALY   = 352.8946

EPHEMERIS_TYPE = 0
CLASSIFICATION_TYPE = U
NORAD_CAT_ID   = 8459
ELEMENT_SET_NO = 999
REV_AT_EPOCH   = 61384
BSTAR          = .11432E-3
MEAN_MOTION_DOT = .321E-5
MEAN_MOTION_DDOT = 0

CCSDS_OMM_VERS = 2.0
CREATION_DATE  = 
ORIGINATOR     = 

OBJECT_NAME    = SL-3 R/B
OBJECT_ID      = 1977-057B
CENTER_NAME    = EARTH
REF_FRAME      = TEME
TIME_SYSTEM    = UTC
MEAN_ELEMENT_THEORY = SGP/SGP4

EPOCH          = 2025-11-04T20:47:51.990144
MEAN_MOTION    = 15.41719846
ECCENTRICITY   = .00081945
INCLINATION    = 97.5674
RA_OF_ASC_NODE = 110.7586
ARG_OF_PERICENTER = 22.3069
MEAN_ANOMALY   = 337.8532

EPHEMERIS_TYPE = 0
CLASSIFICATION_TYPE = U
NORAD_CAT_ID   = 10114
ELEMENT_SET_NO = 999
REV_AT_EPOCH   = 64907
BSTAR          = .27034769E-3
MEAN_MOTION_DOT = .11342E-3
MEAN_MOTION_DDOT = 0

CCSDS_OMM_VERS = 2.0
CREATION_DATE  = 
ORIGINATOR     = 

OBJECT_NAME    = SEASAT 1
OBJECT_ID      = 1978-064A
CENTER_NAME    = EARTH
REF_FRAME      = TEME
TIME_SYSTEM    = UTC
MEAN_ELEMENT_THEORY = SGP/SGP4

EPOCH          = 2025-11-04T18:32:22.170912
MEAN_MOTION    = 14.45994566
ECCENTRICITY   = .00025186
INCLINATION    = 108.0055
RA_OF_ASC_NODE = 223.3956
ARG_OF_PERICENTER = 259.6288
MEAN_ANOMALY   = 100.4573

EPHEMERIS_TYPE = 0
CLASSIFICATION_TYPE = U
NORAD_CAT_ID   = 10967
ELEMENT_SET_NO = 999
REV_AT_EPOCH   = 48845
BSTAR          = .16069474E-3
MEAN_MOTION_DOT = .436E-5
MEAN_MOTION_DDOT = 0

CCSDS_OMM_VERS = 2.0
CREATION_DATE  = 
ORIGINATOR     = 

OBJECT_NAME    = SL-14 R/B
OBJECT_ID      = 1979-011B
CENTER_NAME    = EARTH
REF_FRAME      = TEME
TIME_SYSTEM    = UTC
MEAN_ELEMENT_THEORY = SGP/SGP4

EPOCH          = 2025-11-04T18:07:13.200960
MEAN_MOTION    = 14.91696914
ECCENTRICITY   = .0017581
INCLINATION    = 82.5262
RA_OF_ASC_NODE = 215.0607
ARG_OF_PERICENTER = 112.3429
MEAN_ANOMALY   = 247.9656

EPHEMERIS_TYPE = 0
CLASSIFICATION_TYPE = U
NORAD_CAT_ID   = 11267
ELEMENT_SET_NO = 999
REV_AT_EPOCH   = 51015
BSTAR          = .69704789E-4
MEAN_MOTION_DOT = .729E-5
MEAN_MOTION_DDOT = 0

CCSDS_OMM_VERS = 2.0
CREATION_DATE  = 
ORIGINATOR     = 

OBJECT_NAME    = SL-8 R/B
OBJECT_ID      = 1979-089B
CENTER_NAME    = EARTH
REF_FRAME      = TEME
TIME_SYSTEM    = UTC
MEAN_ELEMENT_THEORY = SGP/SGP4

EPOCH          = 2025-11-04T18:08:09.998592
MEAN_MOTION    = 14.42243641
ECCENTRICITY   = .00153704
INCLINATION    = 74.0683
RA_OF_ASC_NODE = 322.2827
ARG_OF_PERICENTER = 171.1370
MEAN_ANOMALY   = 189.0061

EPHEMERIS_TYPE = 0
CLASSIFICATION_TYPE = U
NORAD_CAT_ID   = 11574
ELEMENT_SET_NO = 999
REV_AT_EPOCH   = 41809
BSTAR          = .11046153E-3
MEAN_MOTION_DOT = .338E-5
MEAN_MOTION_DDOT = 0

CCSDS_OMM_VERS = 2.0
CREATION_DATE  = 
ORIGINATOR     = 

OBJECT_NAME    = SL-14 R/B
OBJECT_ID      = 1980-005B
CENTER_NAME    = EARTH
REF_FRAME      = TEME
TIME_SYSTEM    = UTC
MEAN_ELEMENT_THEORY = SGP/SGP4

EPOCH          = 2025-11-04T18:04:24.809952
MEAN_MOTION    = 14.90711159
ECCENTRICITY   = .00149081
INCLINATION    = 82.5149
RA_OF_ASC_NODE = 65.7168
ARG_OF_PERICENTER = 215.8579
MEAN_ANOMALY   = 144.1641

EPHEMERIS_TYPE = 0
CLASSIFICATION_TYPE = U
NORAD_CAT_ID   = 11672
ELEMENT_SET_NO = 999
REV_AT_EPOCH   = 45787
BSTAR          = .85860449E-4
MEAN_MOTION_DOT = .869E-5
MEAN_MOTION_DDOT = 0

CCSDS_OMM_VERS = 2.0
CREATION_DATE  = 
ORIGINATOR     = 

OBJECT_NAME    = SL-8 R/B
OBJECT_ID      = 1981-003B
CENTER_NAME    = EARTH
REF_FRAME      = TEME
TIME_SYSTEM    = UTC
MEAN_ELEMENT_THEORY = SGP/SGP4

EPOCH          = 2025-11-04T15:59:41.585856
MEAN_MOTION    = 15.04938632
ECCENTRICITY   = .02836096
INCLINATION    = 82.9341
RA_OF_ASC_NODE = 45.1879
ARG_OF_PERICENTER = 251.9400
MEAN_ANOMALY   = 105.0746

EPHEMERIS_TYPE = 0
CLASSIFICATION_TYPE = U
NORAD_CAT_ID   = 12139
ELEMENT_SET_NO = 999
REV_AT_EPOCH   = 29583
BSTAR          = .61924938E-3
MEAN_MOTION_DOT = .22141E-3
MEAN_MOTION_DDOT = 0

CCSDS_OMM_VERS = 2.0
CREATION_DATE  = 
ORIGINATOR     = 

OBJECT_NAME    = SL-3 R/B
OBJECT_ID      = 1981-046B
CENTER_NAME    = EARTH
REF_FRAME      = TEME
TIME_SYSTEM    = UTC
MEAN_ELEMENT_THEORY = SGP/SGP4

EPOCH          = 2025-11-04T22:04:49.364256
MEAN_MOTION    = 15.38425711
ECCENTRICITY   = .00208323
INCLINATION    = 81.2322
RA_OF_ASC_NODE = 79.1339
ARG_OF_PERICENTER = 93.6275
MEAN_ANOMALY   = 266.7349

EPHEMERIS_TYPE = 0
CLASSIFICATION_TYPE = U
NORAD_CAT_ID   = 12465
ELEMENT_SET_NO = 999
REV_AT_EPOCH   = 41922
BSTAR          = .33066683E-3
MEAN_MOTION_DOT = .12658E-3
MEAN_MOTION_DDOT = 0

CCSDS_OMM_VERS = 2.0
CREATION_DATE  = 
ORIGINATOR     = 

OBJECT_NAME    = METEOR PRIRODA
OBJECT_ID      = 1981-065A
CENTER_NAME    = EARTH
REF_FRAME      = TEME
TIME_SYSTEM    = UTC
MEAN_ELEMENT_THEORY = SGP/SGP4

EPOCH          = 2025-11-04T22:06:11.103840
MEAN_MOTION    = 16.02639290
ECCENTRICITY   = .00027051
INCLINATION    = 97.4663
RA_OF_ASC_NODE = 12.6063
ARG_OF_PERICENTER = 277.0824
MEAN_ANOMALY   = 83.0148

EPHEMERIS_TYPE = 0
CLASSIFICATION_TYPE = U
NORAD_CAT_ID   = 12585
ELEMENT_SET_NO = 999
REV_AT_EPOCH   = 42473
BSTAR          = .64669298E-3
MEAN_MOTION_DOT = .380768E-2
MEAN_MOTION_DDOT = .66020169E-4

CCSDS_OMM_VERS = 2.0
CREATION_DATE  = 
ORIGINATOR     = 

OBJECT_NAME    = SL-3 R/B
OBJECT_ID      = 1981-103B
CENTER_NAME    = EARTH
REF_FRAME      = TEME
TIME_SYSTEM    = UTC
MEAN_ELEMENT_THEORY = SGP/SGP4

EPOCH          = 2025-11-04T19:19:24.126240
MEAN_MOTION    = 15.19529031
ECCENTRICITY   = .00159304
INCLINATION    = 81.1619
RA_OF_ASC_NODE = 359.7607
ARG_OF_PERICENTER = 3.8312
MEAN_ANOMALY   = 356.3037

EPHEMERIS_TYPE = 0
CLASSIFICATION_TYPE = U
NORAD_CAT_ID   = 12904
ELEMENT_SET_NO = 999
REV_AT_EPOCH   = 95425
BSTAR          = .19984357E-3
MEAN_MOTION_DOT = .4283E-4
MEAN_MOTION_DDOT = 0

CCSDS_OMM_VERS = 2.0
CREATION_DATE  = 
ORIGINATOR     = 

OBJECT_NAME    = SL-3 R/B
OBJECT_ID      = 1982-013B
CENTER_NAME    = EARTH
REF_FRAME      = TEME
TIME_SYSTEM    = UTC
MEAN_ELEMENT_THEORY = SGP/SGP4

EPOCH          = 2025-11-04T22:38:38.029344
MEAN_MOTION    = 15.20584311
ECCENTRICITY   = .00216149
INCLINATION    = 81.1726
RA_OF_ASC_NODE = 306.8410
ARG_OF_PERICENTER = 237.7869
MEAN_ANOMALY   = 122.1267

EPHEMERIS_TYPE = 0
CLASSIFICATION_TYPE = U
NORAD_CAT_ID   = 13068
ELEMENT_SET_NO = 999
REV_AT_EPOCH   = 38538
BSTAR          = .2356839E-3
MEAN_MOTION_DOT = .5219E-4
MEAN_MOTION_DDOT = 0

