ATLAS CENTAUR R/B       
1 06155U 72065B   25308.74597257  .00001519  00000+0  21221-3 0  9997
2 06155  35.0024 317.7335 0033357  38.3673 321.9392 14.77253309822779
SL-8 R/B                
1 08459U 75112B   25308.29272463  .00000321  00000+0  11432-3 0  9994
2 08459  74.0600 249.5708 0015400   7.2427 352.8946 14.38106662613848
SL-3 R/B                
1 10114U 77057B   25308.86657396  .00011342  00000+0  27035-3 0  9991
2 10114  97.5674 110.7586 0008194  22.3069 337.8532 15.41719846649072
SEASAT 1                
1 10967U 78064A   25308.77247883  .00000436  00000+0  16069-3 0  9999
2 10967 108.0055 223.3956 0002518 259.6288 100.4573 14.45994566488452
SL-14 R/B               
1 11267U 79011B   25308.75501390  .00000729  00000+0  69705-4 0  9991
2 11267  82.5262 215.0607 0017581 112.3429 247.9656 14.91696914510150
SL-8 R/B                
1 11574U 79089B   25308.75567128  .00000338  00000+0  11046-3 0  9998
2 11574  74.0683 322.2827 0015370 171.1370 189.0061 14.42243641418098
SL-14 R/B               
1 11672U 80005B   25308.75306493  .00000869  00000+0  85860-4 0  9998
2 11672  82.5149  65.7168 0014908 215.8579 144.1641 14.90711159457870
SL-8 R/B                
1 12139U 81003B   25308.66645354  .00022141  00000+0  61925-3 0  9990
2 12139  82.9341  45.1879 0283609 251.9400 105.0746 15.04938632295839
SL-3 R/B                
1 12465U 81046B   25308.92001579  .00012658  00000+0  33067-3 0  9991
2 12465  81.2322  79.1339 0020832  93.6275 266.7349 15.38425711419229
METEOR PRIRODA          
1 12585U 81065A   25308.92096185  .00380768  66020-4  64669-3 0  9993
2 12585  97.4663  12.6063 0002705 277.0824  83.0148 16.02639290424732
SL-3 R/B                
1 12904U 81103B   25308.80514035  .00004283  00000+0  19984-3 0  9993
2 12904  81.1619 359.7607 0015930   3.8312 356.3037 15.19529031954254
SL-3 R/B                
1 13068U 82013B   25308.94349571  .00005219  00000+0  23568-3 0  9995
2 13068  81.1726 306.8410 0021614 237.7869 122.1267 15.20584311385381
